KUIPER-00152            
1 65772U 25217L   26023.91671296  .00013290  00000+0  16579-2 0  9992
2 65772  51.8989 228.6409 0001489  62.9359 225.2155 14.82654870  5301
KUIPER-00153            
1 65773U 25217M   26023.87507956  .00013364  00000+0  77676-3 0  9997
2 65773  51.8771 236.2178 0012668 168.7774 191.3486 15.12308938 18316
KUIPER-00155            
1 65774U 25217N   26023.83649313  .00023485  00000+0  10272-2 0  9991
2 65774  51.8800 223.5506 0005901 185.2644 174.8275 15.21939865 18485
KUIPER-00156            
1 65775U 25217P   26023.91671296  .00030300  00000+0  28274-2 0  9991
2 65775  51.8928 224.2485 0006155 293.0703 230.3271 14.93937651  3462
KUIPER-00158            
1 65776U 25217Q   26023.90811690  .00007549  00000+0  10171-2 0  9991
2 65776  51.8956 243.6109 0000909 126.8950 233.2096 14.79973573 18213
KUIPER-00163            
1 65777U 25217R   26023.90552882  .00006030  00000+0  81922-3 0  9994
2 65777  51.8959 246.1273 0001152 109.7084 250.4002 14.79933883 18179
KUIPER-00165            
1 65778U 25217S   26023.95278226  .00003264  00000+0  45677-3 0  9990
2 65778  51.8978 233.4267 0000352  69.8972 290.2029 14.79954022 18355
KUIPER-00166            
1 65779U 25217T   26023.91671296 -.00928840  00000+0 -73012-1 0  9991
2 65779  51.9029 222.4868 0002932 187.0563 143.7044 15.03462006  5678
